0 BREEZE-M DEB (TANK)
1 38246U 12016B   13282.91864977  .00001870  00000-0  49688-3 0  3707
2 38246 049.5914 129.6623 5148940 354.5542 001.5549 05.34209954 28437
0 BREEZE-M DEB (TANK)
1 38246U 12016B   13283.48018391  .00004126  00000-0  10271-2 0  3725
2 38246 049.5664 129.2394 5150037 354.8977 001.4739 05.34214410 28461
0 BREEZE-M DEB (TANK)
1 38246U 12016B   13284.41603428  .00002840  00000-0  75569-3 0  3712
2 38246 049.5915 128.4852 5148702 355.5606 001.2855 05.34220765 28516
0 BREEZE-M DEB (TANK)
1 38246U 12016B   13285.35187684  .00002510  00000-0  67055-3 0  3723
2 38246 049.5929 127.7395 5148504 356.2008 001.0878 05.34224135 28562
0 BREEZE-M DEB (TANK)
1 38246U 12016B   13287.41073111  .00002459  00000-0  64099-3 0  3739
2 38246 049.5898 126.0878 5147779 357.6069 000.7230 05.34234042 28678
0 BREEZE-M DEB (TANK)
1 38246U 12016B   13288.53372075  .00002473  00000-0  64084-3 0  3745
2 38246 049.5846 125.1711 5146820 358.4046 000.5054 05.34239085 28738
0 BREEZE-M DEB (TANK)
1 38246U 12016B   13290.59250083  .00003527  00000-0  90819-3 0  3755
2 38246 049.5841 123.5230 5146636 359.8015 000.1425 05.34255444 28844
0 BREEZE-M DEB (TANK)
1 38246U 12016B   13291.52826673  .00003169  00000-0  82460-3 0  3769
2 38246 049.5815 122.7699 5146102 000.4799 359.9099 05.34260010 28893
0 BREEZE-M DEB (TANK)
1 38246U 12016B   13293.58696540  .00002842  00000-0  76023-3 0  3771
2 38246 049.5748 121.1196 5145926 001.8616 359.5187 05.34271116 29006
0 BREEZE-M DEB (TANK)
1 38246U 12016B   13294.52272600  .00002418  00000-0  65418-3 0  3789
2 38246 049.5847 120.3855 5146305 002.4813 359.3383 05.34274513 29052
0 BREEZE-M DEB (TANK)
1 38246U 12016B   13294.70988037  .00002417  00000-0  65343-3 0  3794
2 38246 049.5882 120.2407 5146519 002.5899 359.3127 05.34275469 29063
